[{"OBJECT_NAME":"STARLINK-31401","OBJECT_ID":"2024-064V","EPOCH":"2026-03-09T06:49:25.049280","MEAN_MOTION":15.27579016,"ECCENTRICITY":0.00014139,"INCLINATION":43.0046,"RA_OF_ASC_NODE":51.5445,"ARG_OF_PERICENTER":251.7508,"MEAN_ANOMALY":108.319,"EPHEMERIS_TYPE":0,"CLASSIFICATION_TYPE":"U","NORAD_CAT_ID":59417,"ELEMENT_SET_NO":999,"REV_AT_EPOCH":10899,"BSTAR":-2.5367148e-5,"MEAN_MOTION_DOT":-9.6e-6,"MEAN_MOTION_DDOT":0},{"OBJECT_NAME":"LIZZIESAT-2 (LS-2)","OBJECT_ID":"2024-247G","EPOCH":"2026-03-09T11:47:37.199328","MEAN_MOTION":15.28222796,"ECCENTRICITY":0.00040927,"INCLINATION":44.9909,"RA_OF_ASC_NODE":117.0823,"ARG_OF_PERICENTER":327.5136,"MEAN_ANOMALY":32.5495,"EPHEMERIS_TYPE":0,"CLASSIFICATION_TYPE":"U","NORAD_CAT_ID":62383,"ELEMENT_SET_NO":999,"REV_AT_EPOCH":6771,"BSTAR":0.00034516624,"MEAN_MOTION_DOT":9.388e-5,"MEAN_MOTION_DDOT":0}]
