STARLINK-31401          
1 59417U 24064V   26068.28431770 -.00000960  00000+0 -25367-4 0  9999
2 59417  43.0046  51.5445 0001413 251.7508 108.3190 15.27579016108998
LIZZIESAT-2 (LS-2)      
1 62383U 24247G   26068.49140277  .00009388  00000+0  34517-3 0  9997
2 62383  44.9909 117.0823 0004092 327.5136  32.5495 15.28222796 67716
